NORAD_CAT_ID,OBJECT_NAME,OBJECT_TYPE,EPOCH,MEAN_MOTION,ECCENTRICITY,INCLINATION,RA_OF_ASC_NODE,ARG_OF_PERICENTER,MEAN_ANOMALY,BSTAR,MEAN_MOTION_DOT,MEAN_MOTION_DDOT,TLE_LINE0,TLE_LINE1,TLE_LINE2,SEMIMAJOR_AXIS,PERIOD,APOGEE,PERIGEE,DECAYED
54103.0,STARLINK-5200,PAYLOAD,2023-01-08 14:00:01,15.73205017,0.0005249,53.2154,112.0935,325.6065,214.3615,3.0023e-05,3.593e-05,0.0,0 STARLINK-5200,1 54103U 22136BE  23008.58334491  .00003593  00000-0  30023-4 0  9999,2 54103  53.2154 112.0935 0005249 325.6065 214.3615 15.73205017 13088,6727.880999999999,91.533,353.277,346.214,0.0
54103.0,STARLINK-5200,PAYLOAD,2023-01-08 17:48:09,15.7459816,0.0008964999999999,53.2147,111.3027,324.2841,35.7579,0.0042022,0.00679378,0.0,0 STARLINK-5200,1 54103U 22136BE  23008.74178059  .00679378  00000-0  42022-2 0  9993,2 54103  53.2147 111.3027 0008965 324.2841  35.7579 15.74598160 13112,6723.911999999998,91.452,351.805,339.749,0.0
54103.0,STARLINK-5200,PAYLOAD,2023-01-09 08:00:01,15.731370000000002,0.0005437,53.2168,108.3746,308.4012,161.7822,-0.0038269,-0.00506048,0.0,0 STARLINK-5200,1 54103U 22136BE  23009.33335648 -.00506048  00000-0 -38269-2 0  9991,2 54103  53.2168 108.3746 0005437 308.4012 161.7822 15.73137000 13206,6728.075,91.537,353.598,346.282,0.0
54103.0,STARLINK-5200,PAYLOAD,2023-01-09 12:06:28,15.73079326,0.0008089,53.2153,107.5337,342.8391,17.2354,-0.00042903,-0.00060233,0.0,0 STARLINK-5200,1 54103U 22136BE  23009.50449877 -.00060233  00000-0 -42903-3 0  9992,2 54103  53.2153 107.5337 0008089 342.8391  17.2354 15.73079326 12766,6728.239000000001,91.54,355.547,344.662,0.0
54103.0,STARLINK-5200,PAYLOAD,2023-01-09 13:38:00,15.72997373,0.0006435,53.2152,107.2192,331.8623,28.2048,-0.00062772,-0.00087184,0.0,0 STARLINK-5200,1 54103U 22136BE  23009.56805712 -.00087184  00000-0 -62772-3 0  9992,2 54103  53.2152 107.2192 0006435 331.8623  28.2048 15.72997373 13246,6728.473000000001,91.545,354.668,346.0080000000001,0.0
54103.0,STARLINK-5200,PAYLOAD,2023-01-09 21:15:33,15.72814738,0.0006843999999999,53.2153,105.6485,319.4088,40.642,-0.00090874,-0.00124442,0.0,0 STARLINK-5200,1 54103U 22136BE  23009.88580300 -.00124442  00000-0 -90874-3 0  9993,2 54103  53.2153 105.6485 0006844 319.4088  40.6420 15.72814738 12823,6728.9940000000015,91.556,355.464,346.2530000000001,0.0
54103.0,STARLINK-5200,PAYLOAD,2023-01-10 09:28:06,15.71992087,0.0006311,53.2151,103.1362,289.4095,70.6242,-0.0024812,-0.00319617,0.0,0 STARLINK-5200,1 54103U 22136BE  23010.39452119 -.00319617  00000-0 -24812-2 0  9995,2 54103  53.2151 103.1362 0006311 289.4095  70.6242 15.71992087 13370,6731.340999999999,91.604,357.454,348.958,0.0
54103.0,STARLINK-5200,PAYLOAD,2023-01-10 12:31:17,15.71795229,0.0005742999999999,53.2155,102.5091,289.1394,70.9003,-0.0027275,-0.00347152,0.0,0 STARLINK-5200,1 54103U 22136BE  23010.52173444 -.00347152  00000-0 -27275-2 0  9992,2 54103  53.2155 102.5091 0005743 289.1394  70.9003 15.71795229 13392,6731.903,91.615,357.634,349.902,0.0
54103.0,STARLINK-5200,PAYLOAD,2023-01-10 22:00:00,15.70385929,0.0001509,53.2171,100.5539,321.7634,113.1803,-0.0083157,-0.0094249,0.0,0 STARLINK-5200,1 54103U 22136BE  23010.91667824 -.00942490  00000-0 -83157-2 0  9992,2 54103  53.2171 100.5539 0001509 321.7634 113.1803 15.70385929 13457,6735.93,91.697,358.8119999999999,356.779,0.0
54103.0,STARLINK-5200,PAYLOAD,2023-01-11 14:00:01,15.6906359,0.00011,53.2175,97.2729,89.281,155.1379,-0.0084754,-0.00911687,0.0,0 STARLINK-5200,1 54103U 22136BE  23011.58334491 -.00911687  00000-0 -84754-2 0  9995,2 54103  53.2175  97.2729 0001100  89.2810 155.1379 15.69063590  1303,6739.714,91.774,362.321,360.838,0.0
54103.0,STARLINK-5200,PAYLOAD,2023-01-11 22:00:00,15.68413747,0.0001009,53.2174,95.6329,93.465,234.5146,-0.0087267,-0.00913557,0.0,0 STARLINK-5200,1 54103U 22136BE  23011.91667824 -.00913557  00000-0 -87267-2 0  9991,2 54103  53.2174  95.6329 0001009  93.4650 234.5146 15.68413747  1303,6741.576,91.813,364.121,362.76,0.0
54103.0,STARLINK-5200,PAYLOAD,2023-01-12 08:00:01,15.67610613,5.920000000000001e-05,53.2173,93.586,95.9409,65.3842,-0.0091693,-0.00927199,0.0,0 STARLINK-5200,1 54103U 22136BE  23012.33334491 -.00927199  00000-0 -91693-2 0  9994,2 54103  53.2173  93.5860 0000592  95.9409  65.3842 15.67610613 13670,6743.8780000000015,91.86,366.142,365.344,0.0
54103.0,STARLINK-5200,PAYLOAD,2023-01-12 22:00:00,15.66462511,0.0001237,53.2145,90.7327,81.3485,132.6579,-0.0096227,-0.00928519,0.0,0 STARLINK-5200,1 54103U 22136BE  23012.91667824 -.00928519  00000-0 -96227-2 0  9992,2 54103  53.2145  90.7327 0001237  81.3485 132.6579 15.66462511 13762,6747.173000000002,91.927,369.872,368.203,0.0
54103.0,STARLINK-5200,PAYLOAD,2023-01-13 14:00:01,15.65136465,0.0001216,53.2142,87.4708,77.3081,296.7777,-0.0094933,-0.00873295,0.0,0 STARLINK-5200,1 54103U 22136BE  23013.58334491 -.00873295  00000-0 -94933-2 0  9999,2 54103  53.2142  87.4708 0001216  77.3081 296.7777 15.65136465  1303,6750.983,92.005,373.669,372.027,0.0
54103.0,STARLINK-5200,PAYLOAD,2023-01-13 22:00:00,15.64499733,0.0001186,53.2134,85.8403,83.9409,9.0132,-0.01015,-0.00906944,0.0,0 STARLINK-5200,1 54103U 22136BE  23013.91667824 -.00906944  00000-0 -10150-1 0  9991,2 54103  53.2134  85.8403 0001186  83.9409   9.0132 15.64499733  1300,6752.815,92.042,375.481,373.879,0.0
54103.0,STARLINK-5200,PAYLOAD,2023-01-14 08:00:01,15.63705579,0.0001246,53.2136,83.8064,92.6068,187.8221,-0.010849,-0.00936299,0.0,0 STARLINK-5200,1 54103U 22136BE  23014.33334491 -.00936299  00000-0 -10849-1 0  9990,2 54103  53.2136  83.8064 0001246  92.6068 187.8221 15.63705579 13986,6755.101,92.089,377.8080000000001,376.124,0.0
54103.0,STARLINK-5200,PAYLOAD,2023-01-15 06:00:00,15.61925283,0.0001226,53.2143,79.3389,83.8145,316.77,-0.011736,-0.00943465,0.0,0 STARLINK-5200,1 54103U 22136BE  23015.25001157 -.00943465  00000-0 -11736-1 0  9991,2 54103  53.2143  79.3389 0001226  83.8145 316.7700 15.61925283 14137,6760.233,92.194,382.927,381.269,0.0
54103.0,STARLINK-5200,PAYLOAD,2023-01-15 14:00:01,15.61227042,0.0001419,53.2143,77.7193,71.4291,44.1247,-0.010959,-0.00864635,0.0,0 STARLINK-5200,1 54103U 22136BE  23015.58334491 -.00864635  00000-0 -10959-1 0  9994,2 54103  53.2143  77.7193 0001419  71.4291  44.1247 15.61227042  1302,6762.249,92.235,385.073,383.154,0.0
54103.0,STARLINK-5200,PAYLOAD,2023-01-15 22:00:01,15.60586965,0.0001341,53.2142,76.0976,86.5326,103.258,-0.011643,-0.00893311,0.0,0 STARLINK-5200,1 54103U 22136BE  23015.91668981 -.00893311  00000-0 -11643-1 0  9999,2 54103  53.2142  76.0976 0001341  86.5326 103.2580 15.60586965  1300,6764.097,92.273,386.87,385.055,0.0
54103.0,STARLINK-5200,PAYLOAD,2023-01-16 08:00:01,15.59803425,0.0001238,53.214,74.0761,91.4421,279.8897,-0.012734,-0.00942856,0.0,0 STARLINK-5200,1 54103U 22136BE  23016.33334491 -.00942856  00000-0 -12734-1 0  9993,2 54103  53.2140  74.0761 0001238  91.4421 279.8897 15.59803425 14300,6766.363,92.319,389.065,387.39,0.0
54103.0,STARLINK-5200,PAYLOAD,2023-01-16 14:00:01,15.59275359,0.0001220999999999,53.2137,72.8649,86.0271,249.6966,-0.011836,-0.00865925,0.0,0 STARLINK-5200,1 54103U 22136BE  23016.58334491 -.00865925  00000-0 -11836-1 0  9993,2 54103  53.2137  72.8649 0001221  86.0271 249.6966 15.59275359  1309,6767.89,92.351,390.581,388.929,0.0
54103.0,STARLINK-5200,PAYLOAD,2023-01-16 22:00:00,15.58632653,0.0001145,53.2138,71.2481,92.1223,315.4298,-0.0124879999999999,-0.00889226,0.0,0 STARLINK-5200,1 54103U 22136BE  23016.91667824 -.00889226  00000-0 -12488-1 0  9993,2 54103  53.2138  71.2481 0001145  92.1223 315.4298 15.58632653  1300,6769.75,92.389,392.391,390.84,0.0
54103.0,STARLINK-5200,PAYLOAD,2023-01-17 14:00:01,15.57321091,0.0001246,53.2141,68.0249,83.0509,105.804,-0.012676,-0.00861457,0.0,0 STARLINK-5200,1 54103U 22136BE  23017.58334491 -.00861457  00000-0 -12676-1 0  9993,2 54103  53.2141  68.0249 0001246  83.0509 105.8040 15.57321091  1304,6773.551,92.466,396.26,394.572,0.0
54103.0,STARLINK-5200,PAYLOAD,2023-01-17 16:00:00,15.57199773,0.0001044,53.2139,67.6217,84.4038,211.8808,-0.013859,-0.00930514,0.0,0 STARLINK-5200,1 54103U 22136BE  23017.66667824 -.00930514  00000-0 -13859-1 0  9996,2 54103  53.2139  67.6217 0001044  84.4038 211.8808 15.57199773 14516,6773.903,92.474,396.475,395.06,0.0
54103.0,STARLINK-5200,PAYLOAD,2023-01-17 22:00:00,15.56669579,0.0001143,53.2145,66.4126,93.5468,164.7935,-0.013171,-0.00872384,0.0,0 STARLINK-5200,1 54103U 22136BE  23017.91667824 -.00872384  00000-0 -13171-1 0  9991,2 54103  53.2145  66.4126 0001143  93.5468 164.7935 15.56669579  1302,6775.441,92.505,398.08,396.531,0.0
54103.0,STARLINK-5200,PAYLOAD,2023-01-18 14:00:01,15.553750099999998,0.0001054,53.2142,63.1986,70.2747,324.6675,-0.0138129999999999,-0.00871801,0.0,0 STARLINK-5200,1 54103U 22136BE  23018.58334491 -.00871801  00000-0 -13813-1 0  9992,2 54103  53.2142  63.1986 0001054  70.2747 324.6675 15.55375010  1301,6779.2,92.582,401.779,400.35,0.0
54103.0,STARLINK-5200,PAYLOAD,2023-01-18 18:00:00,15.55098207,0.0001122,53.2141,62.3947,82.5702,166.024,-0.0155639999999999,-0.00976701,0.0,0 STARLINK-5200,1 54103U 22136BE  23018.75001157 -.00976701  00000-0 -15564-1 0  9991,2 54103  53.2141  62.3947 0001122  82.5702 166.0240 15.55098207 14671,6780.004,92.599,402.63,401.108,0.0
54103.0,STARLINK-5200,PAYLOAD,2023-01-18 22:00:00,15.54711818,0.0001085,53.2142,61.5912,82.6195,19.465,-0.013961,-0.00860804,0.0,0 STARLINK-5200,1 54103U 22136BE  23018.91667824 -.00860804  00000-0 -13961-1 0  9993,2 54103  53.2142  61.5912 0001085  82.6195  19.4650 15.54711818  1301,6781.127,92.622,403.728,402.257,0.0
54103.0,STARLINK-5200,PAYLOAD,2023-01-19 06:00:00,15.54105526,0.0001271,53.214,59.988,83.9135,84.5081,-0.015757,-0.00955189,0.0,0 STARLINK-5200,1 54103U 22136BE  23019.25001157 -.00955189  00000-0 -15757-1 0  9998,2 54103  53.2140  59.9880 0001271  83.9135  84.5081 15.54105526 14756,6782.891,92.658,405.61800000000005,403.894,0.0
